HULIANWANG DIGUI-157    
1 68131U 26047C   26190.76629799 -.00000112  00000+0  26333-4 0  9996
2 68131  50.0022 335.2309 0000791 176.7941 183.2936 13.29327611 16078
HULIANWANG DIGUI-158    
1 68132U 26047D   26190.75790126 -.00000097  00000+0  59118-4 0  9998
2 68132  50.0067 335.2335 0000915 178.9845 181.1029 13.29333725 16064
HULIANWANG DIGUI-160    
1 68134U 26047F   26190.58242951 -.00000106  00000+0  38408-4 0  9999
2 68134  50.0093 335.6697 0001025 162.9732 197.1174 13.29335099 16043
HULIANWANG DIGUI-164    
1 68656U 26076A   26194.26636313  .00000042  00000+0  64111-4 0  9996
2 68656  86.4945  35.0701 0002056  78.5594 281.5771 13.24410865 12824
HULIANWANG DIGUI-165    
1 68657U 26076B   26194.25882492 -.00000016  00000+0 -72126-4 0  9995
2 68657  86.4965  35.0889 0002162  85.1492 274.9889 13.24413559 12822
HULIANWANG DIGUI-166    
1 68658U 26076C   26194.25132770 -.00000018  00000+0 -75933-4 0  9994
2 68658  86.4906  35.0239 0002132  85.1537 274.9840 13.24411582 12825
HULIANWANG DIGUI-167    
1 68659U 26076D   26194.24371050 -.00000018  00000+0 -76867-4 0  9997
2 68659  86.4961  35.0787 0002127  84.9416 275.1961 13.24413639 12824
HULIANWANG DIGUI-168    
1 68660U 26076E   26194.23615644 -.00000035  00000+0 -11458-3 0  9991
2 68660  86.4942  35.0549 0002160  85.1714 274.9667 13.24411836 12818
