{"fetched_at":"2026-07-13T18:16:58.106Z","source":"https://celestrak.org/NORAD/elements/gp.php?NAME=HULIANWANG&FORMAT=JSON","constellation":"guowang","records":[{"OBJECT_NAME":"HULIANWANG DIGUI-157","OBJECT_ID":"2026-047C","EPOCH":"2026-07-09T18:23:28.146336","CLASSIFICATION_TYPE":"U","MEAN_MOTION":13.29327611,"ECCENTRICITY":0.00007914,"INCLINATION":50.0022,"RA_OF_ASC_NODE":335.2309,"ARG_OF_PERICENTER":176.7941,"MEAN_ANOMALY":183.2936,"EPHEMERIS_TYPE":0,"NORAD_CAT_ID":68131,"ELEMENT_SET_NO":999,"REV_AT_EPOCH":1607,"BSTAR":0.000026333316,"MEAN_MOTION_DOT":-0.00000112,"MEAN_MOTION_DDOT":0},{"OBJECT_NAME":"HULIANWANG DIGUI-158","OBJECT_ID":"2026-047D","EPOCH":"2026-07-09T18:11:22.668864","CLASSIFICATION_TYPE":"U","MEAN_MOTION":13.29333725,"ECCENTRICITY":0.00009152,"INCLINATION":50.0067,"RA_OF_ASC_NODE":335.2335,"ARG_OF_PERICENTER":178.9845,"MEAN_ANOMALY":181.1029,"EPHEMERIS_TYPE":0,"NORAD_CAT_ID":68132,"ELEMENT_SET_NO":999,"REV_AT_EPOCH":1606,"BSTAR":0.000059118294,"MEAN_MOTION_DOT":-9.7e-7,"MEAN_MOTION_DDOT":0},{"OBJECT_NAME":"HULIANWANG DIGUI-160","OBJECT_ID":"2026-047F","EPOCH":"2026-07-09T13:58:41.909664","CLASSIFICATION_TYPE":"U","MEAN_MOTION":13.29335099,"ECCENTRICITY":0.00010256,"INCLINATION":50.0093,"RA_OF_ASC_NODE":335.6697,"ARG_OF_PERICENTER":162.9732,"MEAN_ANOMALY":197.1174,"EPHEMERIS_TYPE":0,"NORAD_CAT_ID":68134,"ELEMENT_SET_NO":999,"REV_AT_EPOCH":1604,"BSTAR":0.000038408233,"MEAN_MOTION_DOT":-0.00000106,"MEAN_MOTION_DDOT":0},{"OBJECT_NAME":"HULIANWANG DIGUI-164","OBJECT_ID":"2026-076A","EPOCH":"2026-07-13T06:23:33.774432","CLASSIFICATION_TYPE":"U","MEAN_MOTION":13.24410865,"ECCENTRICITY":0.00020566,"INCLINATION":86.4945,"RA_OF_ASC_NODE":35.0701,"ARG_OF_PERICENTER":78.5594,"MEAN_ANOMALY":281.5771,"EPHEMERIS_TYPE":0,"NORAD_CAT_ID":68656,"ELEMENT_SET_NO":999,"REV_AT_EPOCH":1282,"BSTAR":0.000064110806,"MEAN_MOTION_DOT":4.2e-7,"MEAN_MOTION_DDOT":0},{"OBJECT_NAME":"HULIANWANG DIGUI-165","OBJECT_ID":"2026-076B","EPOCH":"2026-07-13T06:12:42.473088","CLASSIFICATION_TYPE":"U","MEAN_MOTION":13.24413559,"ECCENTRICITY":0.00021629,"INCLINATION":86.4965,"RA_OF_ASC_NODE":35.0889,"ARG_OF_PERICENTER":85.1492,"MEAN_ANOMALY":274.9889,"EPHEMERIS_TYPE":0,"NORAD_CAT_ID":68657,"ELEMENT_SET_NO":999,"REV_AT_EPOCH":1282,"BSTAR":-0.000072125616,"MEAN_MOTION_DOT":-1.6e-7,"MEAN_MOTION_DDOT":0},{"OBJECT_NAME":"HULIANWANG DIGUI-166","OBJECT_ID":"2026-076C","EPOCH":"2026-07-13T06:01:54.713280","CLASSIFICATION_TYPE":"U","MEAN_MOTION":13.24411582,"ECCENTRICITY":0.00021321,"INCLINATION":86.4906,"RA_OF_ASC_NODE":35.0239,"ARG_OF_PERICENTER":85.1537,"MEAN_ANOMALY":274.984,"EPHEMERIS_TYPE":0,"NORAD_CAT_ID":68658,"ELEMENT_SET_NO":999,"REV_AT_EPOCH":1282,"BSTAR":-0.000075932958,"MEAN_MOTION_DOT":-1.8e-7,"MEAN_MOTION_DDOT":0},{"OBJECT_NAME":"HULIANWANG DIGUI-167","OBJECT_ID":"2026-076D","EPOCH":"2026-07-13T05:50:56.587200","CLASSIFICATION_TYPE":"U","MEAN_MOTION":13.24413639,"ECCENTRICITY":0.00021277,"INCLINATION":86.4961,"RA_OF_ASC_NODE":35.0787,"ARG_OF_PERICENTER":84.9416,"MEAN_ANOMALY":275.1961,"EPHEMERIS_TYPE":0,"NORAD_CAT_ID":68659,"ELEMENT_SET_NO":999,"REV_AT_EPOCH":1282,"BSTAR":-0.000076867295,"MEAN_MOTION_DOT":-1.8e-7,"MEAN_MOTION_DDOT":0},{"OBJECT_NAME":"HULIANWANG DIGUI-168","OBJECT_ID":"2026-076E","EPOCH":"2026-07-13T05:40:03.916416","CLASSIFICATION_TYPE":"U","MEAN_MOTION":13.24411836,"ECCENTRICITY":0.00021606,"INCLINATION":86.4942,"RA_OF_ASC_NODE":35.0549,"ARG_OF_PERICENTER":85.1714,"MEAN_ANOMALY":274.9667,"EPHEMERIS_TYPE":0,"NORAD_CAT_ID":68660,"ELEMENT_SET_NO":999,"REV_AT_EPOCH":1281,"BSTAR":-0.00011457623,"MEAN_MOTION_DOT":-3.5e-7,"MEAN_MOTION_DDOT":0}]}
